NORAD_CAT_ID,OBJECT_NAME,OBJECT_TYPE,EPOCH,MEAN_MOTION,ECCENTRICITY,INCLINATION,RA_OF_ASC_NODE,ARG_OF_PERICENTER,MEAN_ANOMALY,BSTAR,MEAN_MOTION_DOT,MEAN_MOTION_DDOT,TLE_LINE0,TLE_LINE1,TLE_LINE2,SEMIMAJOR_AXIS,PERIOD,APOGEE,PERIGEE,DECAYED
49438.0,STARLINK-3044,PAYLOAD,2022-06-20 18:29:07,15.0883823,0.0002889,53.216,185.0657,37.488,322.6314,9.2095e-05,1.177e-05,0.0,0 STARLINK-3044,1 49438U 21104AG  22171.77021998  .00001177  00000-0  92095-4 0  9997,2 49438  53.2160 185.0657 0002889  37.4880 322.6314 15.08838230 33911,6917.886,95.438,541.749,537.752,0.0
49438.0,STARLINK-3044,PAYLOAD,2022-06-21 00:50:39,15.0883954,0.0002892,53.2159,183.8762,38.0162,322.1034,8.787700000000001e-05,1.11e-05,0.0,0 STARLINK-3044,1 49438U 21104AG  22172.03517951  .00001110  00000-0  87877-4 0  9995,2 49438  53.2159 183.8762 0002892  38.0162 322.1034 15.08839540 35029,6917.882,95.438,541.747,537.746,0.0
49438.0,STARLINK-3044,PAYLOAD,2022-06-21 10:22:58,15.08843645,0.0002941,53.2157,182.0921,38.6417,321.4786,9.2047e-05,1.177e-05,0.0,0 STARLINK-3044,1 49438U 21104AG  22172.43261635  .00001177  00000-0  92047-4 0  9992,2 49438  53.2157 182.0921 0002941  38.6417 321.4786 15.08843645 34014,6917.869000000002,95.437,541.769,537.7,0.0
49438.0,STARLINK-3044,PAYLOAD,2022-06-22 00:41:25,15.08847207,0.0002977,53.2155,179.4159,39.5425,320.5784,8.272100000000001e-05,1.028e-05,0.0,0 STARLINK-3044,1 49438U 21104AG  22173.02877232  .00001028  00000-0  82721-4 0  9997,2 49438  53.2155 179.4159 0002977  39.5425 320.5784 15.08847207 35177,6917.858,95.437,541.783,537.664,0.0
49438.0,STARLINK-3044,PAYLOAD,2022-06-22 07:02:58,15.08848925,0.0002993,53.2154,178.2264,40.0772,320.0441,9.2203e-05,1.179e-05,0.0,0 STARLINK-3044,1 49438U 21104AG  22173.29372978  .00001179  00000-0  92203-4 0  9996,2 49438  53.2154 178.2264 0002993  40.0772 320.0441 15.08848925 34149,6917.853,95.437,541.789,537.648,0.0
49438.0,STARLINK-3044,PAYLOAD,2022-06-23 00:32:13,15.08839665,0.0003027,53.2155,174.9555,36.3053,323.8144,-1.9926e-05,-6.06e-06,0.0,0 STARLINK-3044,1 49438U 21104AG  22174.02237817 -.00000606  00000-0 -19926-4 0  9997,2 49438  53.2155 174.9555 0003027  36.3053 323.8144 15.08839665 35328,6917.880999999999,95.438,541.84,537.6519999999998,0.0
49438.0,STARLINK-3044,PAYLOAD,2022-06-23 06:53:46,15.088384,0.0003024,53.2156,173.7662,40.6311,319.4906,-1.8024e-05,-5.76e-06,0.0,0 STARLINK-3044,1 49438U 21104AG  22174.28733866 -.00000576  00000-0 -18024-4 0  9994,2 49438  53.2156 173.7662 0003024  40.6311 319.4906 15.08838400 34295,6917.885,95.438,541.842,537.658,0.0
49438.0,STARLINK-3044,PAYLOAD,2022-06-23 16:26:05,15.08824208,0.000337,53.2155,171.9829,47.6003,312.5274,0.00016812,2.387e-05,0.0,0 STARLINK-3044,1 49438U 21104AG  22174.68478198  .00002387  00000-0  16812-3 0  9994,2 49438  53.2155 171.9829 0003370  47.6003 312.5274 15.08824208 34358,6917.929,95.439,542.125,537.462,0.0
49438.0,STARLINK-3044,PAYLOAD,2022-06-24 00:23:00,15.08857251,0.0002961,53.2155,170.4948,39.1152,321.0054,-0.00023645,-4.052e-05,0.0,0 STARLINK-3044,1 49438U 21104AG  22175.01597534 -.00004052  00000-0 -23645-3 0  9993,2 49438  53.2155 170.4948 0002961  39.1152 321.0054 15.08857251 35479,6917.828,95.436,541.741,537.644,0.0
49438.0,STARLINK-3044,PAYLOAD,2022-06-24 09:55:19,15.08841761,0.0003011,53.2156,168.7119,43.0272,317.0955,-5.4484e-06,-3.75e-06,0.0,0 STARLINK-3044,1 49438U 21104AG  22175.41341520 -.00000375  00000-0 -54484-5 0  9990,2 49438  53.2156 168.7119 0003011  43.0272 317.0955 15.08841761 34466,6917.875,95.437,541.823,537.6569999999998,0.0
49438.0,STARLINK-3044,PAYLOAD,2022-06-24 16:16:51,15.08837895,0.0003078999999999,53.2157,167.5216,42.4755,317.6475,5.1824e-05,5.36e-06,0.0,0 STARLINK-3044,1 49438U 21104AG  22175.67837592  .00000536  00000-0  51824-4 0  9998,2 49438  53.2157 167.5216 0003079  42.4755 317.6475 15.08837895 35574,6917.887,95.438,541.882,537.622,0.0
49438.0,STARLINK-3044,PAYLOAD,2022-06-25 08:10:42,15.08840907,0.0003137,53.2158,164.5475,43.774,316.3501,8.3414e-05,1.039e-05,0.0,0 STARLINK-3044,1 49438U 21104AG  22176.34077348  .00001039  00000-0  83414-4 0  9997,2 49438  53.2158 164.5475 0003137  43.7740 316.3501 15.08840907 34609,6917.878000000002,95.437,541.913,537.572,0.0
49438.0,STARLINK-3044,PAYLOAD,2022-06-25 16:07:38,15.08842872,0.000316,53.2159,163.0607,44.4435,315.6811,8.580899999999999e-05,1.077e-05,0.0,0 STARLINK-3044,1 49438U 21104AG  22176.67197163  .00001077  00000-0  85809-4 0  9993,2 49438  53.2159 163.0607 0003160  44.4435 315.6811 15.08842872 34650,6917.871999999999,95.437,541.923,537.5509999999998,0.0
49438.0,STARLINK-3044,PAYLOAD,2022-06-26 04:50:42,15.08848559,0.0003157,53.2162,160.6816,45.6437,314.4813,9.2554e-05,1.185e-05,0.0,0 STARLINK-3044,1 49438U 21104AG  22177.20188637  .00001185  00000-0  92554-4 0  9994,2 49438  53.2162 160.6816 0003157  45.6437 314.4813 15.08848559 35805,6917.854,95.437,541.903,537.535,0.0
49438.0,STARLINK-3044,PAYLOAD,2022-06-26 08:01:29,15.0884908,0.0003177,53.2157,160.0865,45.2179,314.9071,9.318e-05,1.195e-05,0.0,0 STARLINK-3044,1 49438U 21104AG  22177.33436535  .00001195  00000-0  93180-4 0  9998,2 49438  53.2157 160.0865 0003177  45.2179 314.9071 15.08849080 34752,6917.853,95.437,541.915,537.52,0.0
49438.0,STARLINK-3044,PAYLOAD,2022-06-26 15:58:25,15.08838205,0.0003205,53.2152,158.5996,46.2061,313.9196,-6.6356e-06,-3.94e-06,0.0,0 STARLINK-3044,1 49438U 21104AG  22177.66557476 -.00000394  00000-0 -66356-5 0  9990,2 49438  53.2152 158.5996 0003205  46.2061 313.9196 15.08838205 35875,6917.886,95.438,541.9680000000002,537.534,0.0
49438.0,STARLINK-3044,PAYLOAD,2022-06-27 06:16:53,15.0884185,0.0003188,53.2156,155.9232,47.1872,312.9387,-8.7828e-06,-4.29e-06,0.0,0 STARLINK-3044,1 49438U 21104AG  22178.26173223 -.00000429  00000-0 -87828-5 0  9997,2 49438  53.2156 155.9232 0003188  47.1872 312.9387 15.08841850 34895,6917.875,95.437,541.945,537.534,0.0
49438.0,STARLINK-3044,PAYLOAD,2022-06-28 04:32:17,15.08838436,0.0003235,53.2153,151.7606,48.756,311.3711,-3.8963e-05,-9.09e-06,0.0,0 STARLINK-3044,1 49438U 21104AG  22179.18909454 -.00000909  00000-0 -38963-4 0  9990,2 49438  53.2153 151.7606 0003235  48.7560 311.3711 15.08838436 36101,6917.885,95.438,541.988,537.512,0.0
49438.0,STARLINK-3044,PAYLOAD,2022-06-28 07:43:04,15.088372,0.0003224,53.2163,151.1667,49.0476,311.0795,-7.2007e-05,-1.435e-05,0.0,0 STARLINK-3044,1 49438U 21104AG  22179.32157666 -.00001435  00000-0 -72007-4 0  9998,2 49438  53.2163 151.1667 0003224  49.0476 311.0795 15.08837200 35051,6917.889,95.438,541.984,537.524,0.0
49438.0,STARLINK-3044,PAYLOAD,2022-06-28 15:40:00,15.08827264,0.0003228,53.2161,149.6796,48.9656,311.1615,-4.2189e-05,-9.6e-06,0.0,0 STARLINK-3044,1 49438U 21104AG  22179.65278347 -.00000960  00000-0 -42189-4 0  9994,2 49438  53.2161 149.6796 0003228  48.9656 311.1615 15.08827264 36171,6917.919,95.438,542.0169999999998,537.5509999999998,0.0
49438.0,STARLINK-3044,PAYLOAD,2022-06-29 07:33:51,15.08832172,0.0003248,53.2163,146.7058,49.8584,310.2692,-1.8229e-05,-5.79e-06,0.0,0 STARLINK-3044,1 49438U 21104AG  22180.31518375 -.00000579  00000-0 -18229-4 0  9991,2 49438  53.2163 146.7058 0003248  49.8584 310.2692 15.08832172 35206,6917.904,95.438,542.016,537.5219999999998,0.0
49438.0,STARLINK-3044,PAYLOAD,2022-06-29 21:52:20,15.08827756,0.0003246,53.2162,144.0295,50.4675,309.6603,7.1167e-05,8.44e-06,0.0,0 STARLINK-3044,1 49438U 21104AG  22180.91134548  .00000844  00000-0  71167-4 0  9996,2 49438  53.2162 144.0295 0003246  50.4675 309.6603 15.08827756 35291,6917.918000000002,95.438,542.028,537.5369999999998,0.0
49438.0,STARLINK-3044,PAYLOAD,2022-06-30 07:24:39,15.08830531,0.0003283,53.2162,142.2454,51.2138,308.9147,8.6189e-05,1.083e-05,0.0,0 STARLINK-3044,1 49438U 21104AG  22181.30878579  .00001083  00000-0  86189-4 0  9995,2 49438  53.2162 142.2454 0003283  51.2138 308.9147 15.08830531 35359,6917.909000000002,95.438,542.045,537.503,0.0
49438.0,STARLINK-3044,PAYLOAD,2022-07-01 13:36:58,15.08841355,0.0003362,53.2165,136.5957,54.0398,306.0906,9.599e-05,1.239e-05,0.0,0 STARLINK-3044,1 49438U 21104AG  22182.56734217  .00001239  00000-0  95990-4 0  9997,2 49438  53.2165 136.5957 0003362  54.0398 306.0906 15.08841355 35542,6917.876,95.437,542.067,537.415,0.0
49438.0,STARLINK-3044,PAYLOAD,2022-07-01 19:58:30,15.08842689,0.0003366,53.2164,135.4061,54.6034,305.5272,9.6045e-05,1.24e-05,0.0,0 STARLINK-3044,1 49438U 21104AG  22182.83230101  .00001240  00000-0  96045-4 0  9994,2 49438  53.2164 135.4061 0003366  54.6034 305.5272 15.08842689 36656,6917.871999999999,95.437,542.066,537.409,0.0
49438.0,STARLINK-3044,PAYLOAD,2022-07-01 21:33:53,15.08845044,0.0003367,53.2165,135.1088,54.7789,305.3518,8.2785e-05,1.029e-05,0.0,0 STARLINK-3044,1 49438U 21104AG  22182.89853994  .00001029  00000-0  82785-4 0  9992,2 49438  53.2165 135.1088 0003367  54.7789 305.3518 15.08845044 35593,6917.865,95.437,542.059,537.401,0.0
49438.0,STARLINK-3044,PAYLOAD,2022-07-02 07:06:12,15.08843869,0.0003369,53.2162,133.3252,54.0032,306.1272,8.2136e-05,1.019e-05,0.0,0 STARLINK-3044,1 49438U 21104AG  22183.29597968  .00001019  00000-0  82136-4 0  9992,2 49438  53.2162 133.3252 0003369  54.0032 306.1272 15.08843869 35655,6917.869000000002,95.437,542.064,537.403,0.0
49438.0,STARLINK-3044,PAYLOAD,2022-07-02 21:24:41,15.08837516,0.0003385,53.2164,130.6489,55.65600000000001,304.4752,-1.3169e-05,-4.98e-06,0.0,0 STARLINK-3044,1 49438U 21104AG  22183.89214602 -.00000498  00000-0 -13169-4 0  9991,2 49438  53.2164 130.6489 0003385  55.6560 304.4752 15.08837516 36815,6917.888000000001,95.438,542.095,537.411,0.0
49438.0,STARLINK-3044,PAYLOAD,2022-07-03 13:18:31,15.08849926,0.0003389,53.2164,127.6752,58.2494,301.8828,4.9786e-05,5.04e-06,0.0,0 STARLINK-3044,1 49438U 21104AG  22184.55453390  .00000504  00000-0  49786-4 0  9994,2 49438  53.2164 127.6752 0003389  58.2494 301.8828 15.08849926 35848,6917.85,95.437,542.06,537.371,0.0
